[{"OBJECT_NAME":"STARLINK-32395","OBJECT_ID":"2024-193U","EPOCH":"2026-03-09T10:33:48.783744","MEAN_MOTION":15.30190646,"ECCENTRICITY":0.00011481,"INCLINATION":53.1606,"RA_OF_ASC_NODE":92.4999,"ARG_OF_PERICENTER":111.5436,"MEAN_ANOMALY":248.5687,"EPHEMERIS_TYPE":0,"CLASSIFICATION_TYPE":"U","NORAD_CAT_ID":61679,"ELEMENT_SET_NO":999,"REV_AT_EPOCH":7648,"BSTAR":-1.9995491e-5,"MEAN_MOTION_DOT":-9.51e-6,"MEAN_MOTION_DDOT":0},{"OBJECT_NAME":"USA 22","OBJECT_ID":"1987-043A","EPOCH":"2026-03-09T12:49:38.770464","MEAN_MOTION":14.09930808,"ECCENTRICITY":0.06945592,"INCLINATION":63.291,"RA_OF_ASC_NODE":125.356,"ARG_OF_PERICENTER":106.1549,"MEAN_ANOMALY":261.7059,"EPHEMERIS_TYPE":0,"CLASSIFICATION_TYPE":"U","NORAD_CAT_ID":17997,"ELEMENT_SET_NO":999,"REV_AT_EPOCH":9242,"BSTAR":0.00062215279,"MEAN_MOTION_DOT":0.00012639,"MEAN_MOTION_DDOT":0}]
